{"type": "FeatureCollection", "features": [ {"type": "Feature", "properties": {"norad_id": 66869, "name": "STARLINK-36092", "group": "last-30-days", "lat": -29.919700284919, "lon": 32.61620916619398, "alt_km": 355.78310631615295, "timestamp": "2025-12-21T03:56:49.616832+00:00", "meta": {"OBJECT_NAME": "STARLINK-36092", "OBJECT_ID": "2025-281X", "EPOCH": "2025-12-20T20:00:01.999008", "MEAN_MOTION": 15.73132972, "ECCENTRICITY": 0.0001144, "INCLINATION": 43.0006, "RA_OF_ASC_NODE": 72.7563, "ARG_OF_PERICENTER": 274.4158, "MEAN_ANOMALY": 322.025, "EPHEMERIS_TYPE": 0, "CLASSIFICATION_TYPE": "U", "NORAD_CAT_ID": 66869, "ELEMENT_SET_NO": 999, "REV_AT_EPOCH": 272, "BSTAR": -0.015567, "MEAN_MOTION_DOT": -0.01950221, "MEAN_MOTION_DDOT": 0}, "tle": {"line1": "1 66869U 25281X   25354.83335647 -.01950221  00000+0 -15567-1 0  9997", "line2": "2 66869  43.0006  72.7563 0001144 274.4158 322.0250 15.73132972  2726"}}, "geometry": {"type": "Point", "coordinates": [32.61620916619398, -29.919700284919]}}, {"type": "Feature", "properties": {"norad_id": 66870, "name": "STARLINK-36114", "group": "last-30-days", "lat": -28.881368430106033, "lon": 34.45496440503648, "alt_km": 355.7474040249881, "timestamp": "2025-12-21T03:56:49.616843+00:00", "meta": {"OBJECT_NAME": "STARLINK-36114", "OBJECT_ID": "2025-281Y", "EPOCH": "2025-12-20T20:00:01.999008", "MEAN_MOTION": 15.73127989, "ECCENTRICITY": 0.0001097, "INCLINATION": 43.0006, "RA_OF_ASC_NODE": 72.7514, "ARG_OF_PERICENTER": 274.8398, "MEAN_ANOMALY": 323.5167, "EPHEMERIS_TYPE": 0, "CLASSIFICATION_TYPE": "U", "NORAD_CAT_ID": 66870, "ELEMENT_SET_NO": 999, "REV_AT_EPOCH": 259, "BSTAR": -0.015478, "MEAN_MOTION_DOT": -0.01900983, "MEAN_MOTION_DDOT": 0}, "tle": {"line1": "1 66870U 25281Y   25354.83335647 -.01900983  00000+0 -15478-1 0  9990", "line2": "2 66870  43.0006  72.7514 0001097 274.8398 323.5167 15.73127989  2591"}}, "geometry": {"type": "Point", "coordinates": [34.45496440503648, -28.881368430106033]}}, {"type": "Feature", "properties": {"norad_id": 66871, "name": "STARLINK-36095", "group": "last-30-days", "lat": -27.81529577870186, "lon": 36.261775831960215, "alt_km": 355.6979902593712, "timestamp": "2025-12-21T03:56:49.616852+00:00", "meta": {"OBJECT_NAME": "STARLINK-36095", "OBJECT_ID": "2025-281Z", "EPOCH": "2025-12-20T20:00:01.999008", "MEAN_MOTION": 15.73134532, "ECCENTRICITY": 0.0001171, "INCLINATION": 43.0007, "RA_OF_ASC_NODE": 72.7461, "ARG_OF_PERICENTER": 271.3423, "MEAN_ANOMALY": 328.9287, "EPHEMERIS_TYPE": 0, "CLASSIFICATION_TYPE": "U", "NORAD_CAT_ID": 66871, "ELEMENT_SET_NO": 999, "REV_AT_EPOCH": 272, "BSTAR": -0.015546, "MEAN_MOTION_DOT": -0.0194795, "MEAN_MOTION_DDOT": 0}, "tle": {"line1": "1 66871U 25281Z   25354.83335647 -.01947950  00000+0 -15546-1 0  9992", "line2": "2 66871  43.0007  72.7461 0001171 271.3423 328.9287 15.73134532  2727"}}, "geometry": {"type": "Point", "coordinates": [36.261775831960215, -27.81529577870186]}}, {"type": "Feature", "properties": {"norad_id": 66872, "name": "STARLINK-36082", "group": "last-30-days", "lat": -26.727042831013353, "lon": 38.03115208730826, "alt_km": 355.6258574714693, "timestamp": "2025-12-21T03:56:49.616861+00:00", "meta": {"OBJECT_NAME": "STARLINK-36082", "OBJECT_ID": "2025-281AA", "EPOCH": "2025-12-20T20:00:01.999008", "MEAN_MOTION": 15.73127638, "ECCENTRICITY": 0.0001172, "INCLINATION": 43.0004, "RA_OF_ASC_NODE": 72.7411, "ARG_OF_PERICENTER": 273.4058, "MEAN_ANOMALY": 328.7894, "EPHEMERIS_TYPE": 0, "CLASSIFICATION_TYPE": "U", "NORAD_CAT_ID": 66872, "ELEMENT_SET_NO": 999, "REV_AT_EPOCH": 259, "BSTAR": -0.01551, "MEAN_MOTION_DOT": -0.0194349, "MEAN_MOTION_DDOT": 0}, "tle": {"line1": "1 66872U 25281AA  25354.83335647 -.01943490  00000+0 -15510-1 0  9999", "line2": "2 66872  43.0004  72.7411 0001172 273.4058 328.7894 15.73127638  2594"}}, "geometry": {"type": "Point", "coordinates": [38.03115208730826, -26.727042831013353]}}, {"type": "Feature", "properties": {"norad_id": 66873, "name": "STARLINK-36128", "group": "last-30-days", "lat": -23.339610353182003, "lon": 43.140853758697645, "alt_km": 355.38262770471283, "timestamp": "2025-12-21T03:56:49.616870+00:00", "meta": {"OBJECT_NAME": "STARLINK-36128", "OBJECT_ID": "2025-281AB", "EPOCH": "2025-12-20T20:00:01.999008", "MEAN_MOTION": 15.73126274, "ECCENTRICITY": 0.0001222, "INCLINATION": 43.0008, "RA_OF_ASC_NODE": 72.7256, "ARG_OF_PERICENTER": 275.7494, "MEAN_ANOMALY": 332.1975, "EPHEMERIS_TYPE": 0, "CLASSIFICATION_TYPE": "U", "NORAD_CAT_ID": 66873, "ELEMENT_SET_NO": 999, "REV_AT_EPOCH": 272, "BSTAR": -0.015491, "MEAN_MOTION_DOT": -0.01902344, "MEAN_MOTION_DDOT": 0}, "tle": {"line1": "1 66873U 25281AB  25354.83335647 -.01902344  00000+0 -15491-1 0  9991", "line2": "2 66873  43.0008  72.7256 0001222 275.7494 332.1975 15.73126274  2720"}}, "geometry": {"type": "Point", "coordinates": [43.140853758697645, -23.339610353182003]}}, {"type": "Feature", "properties": {"norad_id": 66874, "name": "STARLINK-36129", "group": "last-30-days", "lat": -25.617867620179684, "lon": 39.766485446614986, "alt_km": 355.52922315453907, "timestamp": "2025-12-21T03:56:49.616879+00:00", "meta": {"OBJECT_NAME": "STARLINK-36129", "OBJECT_ID": "2025-281AC", "EPOCH": "2025-12-20T20:00:01.999008", "MEAN_MOTION": 15.73131251, "ECCENTRICITY": 0.0001195, "INCLINATION": 43.0006, "RA_OF_ASC_NODE": 72.7365, "ARG_OF_PERICENTER": 275.4551, "MEAN_ANOMALY": 328.6554, "EPHEMERIS_TYPE": 0, "CLASSIFICATION_TYPE": "U", "NORAD_CAT_ID": 66874, "ELEMENT_SET_NO": 999, "REV_AT_EPOCH": 272, "BSTAR": -0.015554, "MEAN_MOTION_DOT": -0.01948675, "MEAN_MOTION_DDOT": 0}, "tle": {"line1": "1 66874U 25281AC  25354.83335647 -.01948675  00000+0 -15554-1 0  9999", "line2": "2 66874  43.0006  72.7365 0001195 275.4551 328.6554 15.73131251  2724"}}, "geometry": {"type": "Point", "coordinates": [39.766485446614986, -25.617867620179684]}}, {"type": "Feature", "properties": {"norad_id": 66875, "name": "STARLINK-36053", "group": "last-30-days", "lat": -22.173191133399726, "lon": 44.78447215286056, "alt_km": 355.41661713590383, "timestamp": "2025-12-21T03:56:49.616907+00:00", "meta": {"OBJECT_NAME": "STARLINK-36053", "OBJECT_ID": "2025-281AD", "EPOCH": "2025-12-20T20:00:01.999008", "MEAN_MOTION": 15.73131506, "ECCENTRICITY": 0.0001181, "INCLINATION": 43.0006, "RA_OF_ASC_NODE": 72.7208, "ARG_OF_PERICENTER": 269.6209, "MEAN_ANOMALY": 340.2375, "EPHEMERIS_TYPE": 0, "CLASSIFICATION_TYPE": "U", "NORAD_CAT_ID": 66875, "ELEMENT_SET_NO": 999, "REV_AT_EPOCH": 272, "BSTAR": -0.015516, "MEAN_MOTION_DOT": -0.0194447, "MEAN_MOTION_DDOT": 0}, "tle": {"line1": "1 66875U 25281AD  25354.83335647 -.01944470  00000+0 -15516-1 0  9997", "line2": "2 66875  43.0006  72.7208 0001181 269.6209 340.2375 15.73131506  2725"}}, "geometry": {"type": "Point", "coordinates": [44.78447215286056, -22.173191133399726]}}, {"type": "Feature", "properties": {"norad_id": 66876, "name": "STARLINK-35702", "group": "last-30-days", "lat": -24.487990526323067, "lon": 41.46921147668163, "alt_km": 355.4686975833947, "timestamp": "2025-12-21T03:56:49.616916+00:00", "meta": {"OBJECT_NAME": "STARLINK-35702", "OBJECT_ID": "2025-281AE", "EPOCH": "2025-12-20T20:00:01.999008", "MEAN_MOTION": 15.73133063, "ECCENTRICITY": 0.0001198, "INCLINATION": 43.0007, "RA_OF_ASC_NODE": 72.731, "ARG_OF_PERICENTER": 275.0812, "MEAN_ANOMALY": 330.9452, "EPHEMERIS_TYPE": 0, "CLASSIFICATION_TYPE": "U", "NORAD_CAT_ID": 66876, "ELEMENT_SET_NO": 999, "REV_AT_EPOCH": 272, "BSTAR": -0.015567, "MEAN_MOTION_DOT": -0.01950284, "MEAN_MOTION_DDOT": 0}, "tle": {"line1": "1 66876U 25281AE  25354.83335647 -.01950284  00000+0 -15567-1 0  9994", "line2": "2 66876  43.0007  72.7310 0001198 275.0812 330.9452 15.73133063  2722"}}, "geometry": {"type": "Point", "coordinates": [41.46921147668163, -24.487990526323067]}}, {"type": "Feature", "properties": {"norad_id": 66877, "name": "ZQ-3 R/B", "group": "last-30-days", "lat": -29.593668613473525, "lon": -133.29661894374757, "alt_km": 170.10798981606513, "timestamp": "2025-12-21T03:56:49.616925+00:00", "meta": {"OBJECT_NAME": "ZQ-3 R/B", "OBJECT_ID": "2025-282A", "EPOCH": "2025-12-20T07:25:11.913024", "MEAN_MOTION": 14.74860688, "ECCENTRICITY": 0.07154631, "INCLINATION": 56.9493, "RA_OF_ASC_NODE": 28.3554, "ARG_OF_PERICENTER": 233.2383, "MEAN_ANOMALY": 120.0902, "EPHEMERIS_TYPE": 0, "CLASSIFICATION_TYPE": "U", "NORAD_CAT_ID": 66877, "ELEMENT_SET_NO": 999, "REV_AT_EPOCH": 250, "BSTAR": 0.00016912558, "MEAN_MOTION_DOT": 0.0093684, "MEAN_MOTION_DDOT": 7.752874e-06}, "tle": {"line1": "1 66877U 25282A   25354.30916566  .00936840  77529-5  16913-3 0  9996", "line2": "2 66877  56.9493  28.3554 0715463 233.2383 120.0902 14.74860688  2502"}}, "geometry": {"type": "Point", "coordinates": [-133.29661894374757, -29.593668613473525]}}, {"type": "Feature", "properties": {"norad_id": 66878, "name": "STARLINK-35866", "group": "last-30-days", "lat": 7.243226601582675, "lon": 37.075326620688564, "alt_km": 346.8290616422728, "timestamp": "2025-12-21T03:56:49.616937+00:00", "meta": {"OBJECT_NAME": "STARLINK-35866", "OBJECT_ID": "2025-283A", "EPOCH": "2025-12-20T20:00:01.999008", "MEAN_MOTION": 15.74203334, "ECCENTRICITY": 8.11e-05, "INCLINATION": 53.158, "RA_OF_ASC_NODE": 33.2507, "ARG_OF_PERICENTER": 88.265, "MEAN_ANOMALY": 203.4157, "EPHEMERIS_TYPE": 0, "CLASSIFICATION_TYPE": "U", "NORAD_CAT_ID": 66878, "ELEMENT_SET_NO": 999, "REV_AT_EPOCH": 372, "BSTAR": -0.00036527, "MEAN_MOTION_DOT": -0.00053815, "MEAN_MOTION_DDOT": 0}, "tle": {"line1": "1 66878U 25283A   25354.83335647 -.00053815  00000+0 -36527-3 0  9992", "line2": "2 66878  53.1580  33.2507 0000811  88.2650 203.4157 15.74203334  3724"}}, "geometry": {"type": "Point", "coordinates": [37.075326620688564, 7.243226601582675]}}]}